[{"OBJECT_NAME":"STARLINK-5037","OBJECT_ID":"2022-119L","EPOCH":"2026-03-09T22:23:46.104864","MEAN_MOTION":15.08829998,"ECCENTRICITY":0.00011991,"INCLINATION":53.2185,"RA_OF_ASC_NODE":322.8658,"ARG_OF_PERICENTER":95.8636,"MEAN_ANOMALY":264.2493,"EPHEMERIS_TYPE":0,"CLASSIFICATION_TYPE":"U","NORAD_CAT_ID":53896,"ELEMENT_SET_NO":999,"REV_AT_EPOCH":19172,"BSTAR":2.0201437e-5,"MEAN_MOTION_DOT":3.4e-7,"MEAN_MOTION_DDOT":0},{"OBJECT_NAME":"NANOFF A","OBJECT_ID":"2023-185T","EPOCH":"2026-03-09T23:34:34.415328","MEAN_MOTION":15.11542977,"ECCENTRICITY":0.00086783,"INCLINATION":97.5359,"RA_OF_ASC_NODE":137.8345,"ARG_OF_PERICENTER":292.8968,"MEAN_ANOMALY":67.1346,"EPHEMERIS_TYPE":0,"CLASSIFICATION_TYPE":"U","NORAD_CAT_ID":58810,"ELEMENT_SET_NO":999,"REV_AT_EPOCH":11805,"BSTAR":0.00027314844,"MEAN_MOTION_DOT":4.57e-5,"MEAN_MOTION_DDOT":0}]
